STARLINK-34145          
1 64110U 25110Q   25218.60939379  .00016028  00000+0  40986-3 0  9991
2 64110  53.1590 312.1183 0001197  92.1826 267.9316 15.39618059 12860
STARLINK-34148          
1 64111U 25110R   25218.53021254  .00026909  00000+0  68038-3 0  9995
2 64111  53.1602 312.3387 0001314  86.8229 273.2926 15.39617795 12853
STARLINK-34136          
1 64112U 25110S   25218.72993421  .00033335  00000+0  83936-3 0  9996
2 64112  53.1597 311.4500 0001173  83.5478 276.5661 15.39632972 12886
STARLINK-33839          
1 64113U 25110T   25218.52558481  .00077935  00000+0  19358-2 0  9998
2 64113  53.1584 312.3056 0001124  63.5385 296.5735 15.39662408 12858
STARLINK-34064          
1 64114U 25110U   25218.53950910  .00054717  00000+0  13652-2 0  9997
2 64114  53.1594 312.3949 0000971 109.0796 251.0314 15.39684226 12853
STARLINK-34067          
1 64115U 25110V   25218.65110729  .00040969  00000+0  10278-2 0  9992
2 64115  53.1597 311.6667 0001097  87.2036 272.9094 15.39647091 12878
STARLINK-34080          
1 64116U 25110W   25218.52094398  .00067534  00000+0  16820-2 0  9998
2 64116  53.1620 312.2796 0001323  30.4006 329.7076 15.39645447 12857
STARLINK-34122          
1 64117U 25110X   25218.64644702  .00016763  00000+0  42804-3 0  9992
2 64117  53.1597 311.6372 0001265  91.9893 268.1257 15.39625912 12879
STARLINK-33964          
1 64118U 25110Y   25218.52590475  .00031330  00000+0  78993-3 0  9992
2 64118  53.1598 312.3077 0000987  82.3491 277.7626 15.39622977 12851
STARLINK-34160          
1 64119U 25110Z   25218.64610812  .00023570  00000+0  59712-3 0  9999
2 64119  53.1598 311.6364 0001192  95.5419 264.5722 15.39634976 12873
STARLINK-34151          
1 64120U 25110AA  25218.76698691  .00035402  00000+0  89021-3 0  9998
2 64120  53.1587 310.9665 0001174  78.7438 281.3699 15.39644435 12896
STARLINK-34189          
1 64121U 25110AB  25218.76665224  .00025872  00000+0  65435-3 0  9998
2 64121  53.1585 310.9646 0001256  80.7034 279.4113 15.39630432 12891
STARLINK-33991          
1 64122U 25110AC  25218.77162845  .00028260  00000+0  71332-3 0  9998
2 64122  53.1585 310.9960 0001102  96.9797 263.1333 15.39643253 12884
STARLINK-11727 [DTC]    
1 64123U 25111A   25218.83024327  .00208241  00000+0  15830-2 0  9998
2 64123  42.9979 189.2844 0001453 260.3050  99.7653 15.70886241 12849
STARLINK-11724 [DTC]    
1 64124U 25111B   25218.92555409  .00165333  00000+0  12663-2 0  9994
2 64124  42.9997 188.2615 0001624 273.5491  86.5191 15.70844506 12861
STARLINK-11725 [DTC]    
1 64125U 25111C   25218.62357378  .00213182  00000+0  16193-2 0  9995
2 64125  42.9989 190.3032 0000676  11.7725 348.3159 15.70888172 12813
