[{"OBJECT_NAME":"STARLINK-34145","OBJECT_ID":"2025-110Q","EPOCH":"2025-08-06T14:37:31.623456","MEAN_MOTION":15.39618059,"ECCENTRICITY":0.0001197,"INCLINATION":53.159,"RA_OF_ASC_NODE":312.1183,"ARG_OF_PERICENTER":92.1826,"MEAN_ANOMALY":267.9316,"EPHEMERIS_TYPE":0,"CLASSIFICATION_TYPE":"U","NORAD_CAT_ID":64110,"ELEMENT_SET_NO":999,"REV_AT_EPOCH":1286,"BSTAR":0.00040986268,"MEAN_MOTION_DOT":0.00016028,"MEAN_MOTION_DDOT":0},{"OBJECT_NAME":"STARLINK-34148","OBJECT_ID":"2025-110R","EPOCH":"2025-08-06T12:43:30.363456","MEAN_MOTION":15.39617795,"ECCENTRICITY":0.00013146,"INCLINATION":53.1602,"RA_OF_ASC_NODE":312.3387,"ARG_OF_PERICENTER":86.8229,"MEAN_ANOMALY":273.2926,"EPHEMERIS_TYPE":0,"CLASSIFICATION_TYPE":"U","NORAD_CAT_ID":64111,"ELEMENT_SET_NO":999,"REV_AT_EPOCH":1285,"BSTAR":0.00068038024,"MEAN_MOTION_DOT":0.00026909,"MEAN_MOTION_DDOT":0},{"OBJECT_NAME":"STARLINK-34136","OBJECT_ID":"2025-110S","EPOCH":"2025-08-06T17:31:06.315744","MEAN_MOTION":15.39632972,"ECCENTRICITY":0.00011736,"INCLINATION":53.1597,"RA_OF_ASC_NODE":311.45,"ARG_OF_PERICENTER":83.5478,"MEAN_ANOMALY":276.5661,"EPHEMERIS_TYPE":0,"CLASSIFICATION_TYPE":"U","NORAD_CAT_ID":64112,"ELEMENT_SET_NO":999,"REV_AT_EPOCH":1288,"BSTAR":0.0008393647,"MEAN_MOTION_DOT":0.00033335,"MEAN_MOTION_DDOT":0},{"OBJECT_NAME":"STARLINK-33839","OBJECT_ID":"2025-110T","EPOCH":"2025-08-06T12:36:50.527584","MEAN_MOTION":15.39662408,"ECCENTRICITY":0.00011243,"INCLINATION":53.1584,"RA_OF_ASC_NODE":312.3056,"ARG_OF_PERICENTER":63.5385,"MEAN_ANOMALY":296.5735,"EPHEMERIS_TYPE":0,"CLASSIFICATION_TYPE":"U","NORAD_CAT_ID":64113,"ELEMENT_SET_NO":999,"REV_AT_EPOCH":1285,"BSTAR":0.0019358139,"MEAN_MOTION_DOT":0.00077935,"MEAN_MOTION_DDOT":0},{"OBJECT_NAME":"STARLINK-34064","OBJECT_ID":"2025-110U","EPOCH":"2025-08-06T12:56:53.586240","MEAN_MOTION":15.39684226,"ECCENTRICITY":9.716e-5,"INCLINATION":53.1594,"RA_OF_ASC_NODE":312.3949,"ARG_OF_PERICENTER":109.0796,"MEAN_ANOMALY":251.0314,"EPHEMERIS_TYPE":0,"CLASSIFICATION_TYPE":"U","NORAD_CAT_ID":64114,"ELEMENT_SET_NO":999,"REV_AT_EPOCH":1285,"BSTAR":0.0013652364,"MEAN_MOTION_DOT":0.00054717,"MEAN_MOTION_DDOT":0},{"OBJECT_NAME":"STARLINK-34067","OBJECT_ID":"2025-110V","EPOCH":"2025-08-06T15:37:35.669856","MEAN_MOTION":15.39647091,"ECCENTRICITY":0.00010978,"INCLINATION":53.1597,"RA_OF_ASC_NODE":311.6667,"ARG_OF_PERICENTER":87.2036,"MEAN_ANOMALY":272.9094,"EPHEMERIS_TYPE":0,"CLASSIFICATION_TYPE":"U","NORAD_CAT_ID":64115,"ELEMENT_SET_NO":999,"REV_AT_EPOCH":1287,"BSTAR":0.0010277986,"MEAN_MOTION_DOT":0.00040969,"MEAN_MOTION_DDOT":0},{"OBJECT_NAME":"STARLINK-34080","OBJECT_ID":"2025-110W","EPOCH":"2025-08-06T12:30:09.559872","MEAN_MOTION":15.39645447,"ECCENTRICITY":0.0001323,"INCLINATION":53.162,"RA_OF_ASC_NODE":312.2796,"ARG_OF_PERICENTER":30.4006,"MEAN_ANOMALY":329.7076,"EPHEMERIS_TYPE":0,"CLASSIFICATION_TYPE":"U","NORAD_CAT_ID":64116,"ELEMENT_SET_NO":999,"REV_AT_EPOCH":1285,"BSTAR":0.0016819995,"MEAN_MOTION_DOT":0.00067534,"MEAN_MOTION_DDOT":0},{"OBJECT_NAME":"STARLINK-34122","OBJECT_ID":"2025-110X","EPOCH":"2025-08-06T15:30:53.022528","MEAN_MOTION":15.39625912,"ECCENTRICITY":0.00012656,"INCLINATION":53.1597,"RA_OF_ASC_NODE":311.6372,"ARG_OF_PERICENTER":91.9893,"MEAN_ANOMALY":268.1257,"EPHEMERIS_TYPE":0,"CLASSIFICATION_TYPE":"U","NORAD_CAT_ID":64117,"ELEMENT_SET_NO":999,"REV_AT_EPOCH":1287,"BSTAR":0.00042804426,"MEAN_MOTION_DOT":0.00016763,"MEAN_MOTION_DDOT":0},{"OBJECT_NAME":"STARLINK-33964","OBJECT_ID":"2025-110Y","EPOCH":"2025-08-06T12:37:18.170400","MEAN_MOTION":15.39622977,"ECCENTRICITY":9.877e-5,"INCLINATION":53.1598,"RA_OF_ASC_NODE":312.3077,"ARG_OF_PERICENTER":82.3491,"MEAN_ANOMALY":277.7626,"EPHEMERIS_TYPE":0,"CLASSIFICATION_TYPE":"U","NORAD_CAT_ID":64118,"ELEMENT_SET_NO":999,"REV_AT_EPOCH":1285,"BSTAR":0.0007899276,"MEAN_MOTION_DOT":0.0003133,"MEAN_MOTION_DDOT":0},{"OBJECT_NAME":"STARLINK-34160","OBJECT_ID":"2025-110Z","EPOCH":"2025-08-06T15:30:23.741568","MEAN_MOTION":15.39634976,"ECCENTRICITY":0.0001192,"INCLINATION":53.1598,"RA_OF_ASC_NODE":311.6364,"ARG_OF_PERICENTER":95.5419,"MEAN_ANOMALY":264.5722,"EPHEMERIS_TYPE":0,"CLASSIFICATION_TYPE":"U","NORAD_CAT_ID":64119,"ELEMENT_SET_NO":999,"REV_AT_EPOCH":1287,"BSTAR":0.00059711666,"MEAN_MOTION_DOT":0.0002357,"MEAN_MOTION_DDOT":0},{"OBJECT_NAME":"STARLINK-34151","OBJECT_ID":"2025-110AA","EPOCH":"2025-08-06T18:24:27.669024","MEAN_MOTION":15.39644435,"ECCENTRICITY":0.0001174,"INCLINATION":53.1587,"RA_OF_ASC_NODE":310.9665,"ARG_OF_PERICENTER":78.7438,"MEAN_ANOMALY":281.3699,"EPHEMERIS_TYPE":0,"CLASSIFICATION_TYPE":"U","NORAD_CAT_ID":64120,"ELEMENT_SET_NO":999,"REV_AT_EPOCH":1289,"BSTAR":0.00089021472,"MEAN_MOTION_DOT":0.00035402,"MEAN_MOTION_DDOT":0},{"OBJECT_NAME":"STARLINK-34189","OBJECT_ID":"2025-110AB","EPOCH":"2025-08-06T18:23:58.753536","MEAN_MOTION":15.39630432,"ECCENTRICITY":0.00012567,"INCLINATION":53.1585,"RA_OF_ASC_NODE":310.9646,"ARG_OF_PERICENTER":80.7034,"MEAN_ANOMALY":279.4113,"EPHEMERIS_TYPE":0,"CLASSIFICATION_TYPE":"U","NORAD_CAT_ID":64121,"ELEMENT_SET_NO":999,"REV_AT_EPOCH":1289,"BSTAR":0.0006543534,"MEAN_MOTION_DOT":0.00025872,"MEAN_MOTION_DDOT":0},{"OBJECT_NAME":"STARLINK-33991","OBJECT_ID":"2025-110AC","EPOCH":"2025-08-06T18:31:08.698080","MEAN_MOTION":15.39643253,"ECCENTRICITY":0.00011022,"INCLINATION":53.1585,"RA_OF_ASC_NODE":310.996,"ARG_OF_PERICENTER":96.9797,"MEAN_ANOMALY":263.1333,"EPHEMERIS_TYPE":0,"CLASSIFICATION_TYPE":"U","NORAD_CAT_ID":64122,"ELEMENT_SET_NO":999,"REV_AT_EPOCH":1288,"BSTAR":0.00071331605,"MEAN_MOTION_DOT":0.0002826,"MEAN_MOTION_DDOT":0},{"OBJECT_NAME":"STARLINK-11727 [DTC]","OBJECT_ID":"2025-111A","EPOCH":"2025-08-06T19:55:33.018528","MEAN_MOTION":15.70886241,"ECCENTRICITY":0.00014536,"INCLINATION":42.9979,"RA_OF_ASC_NODE":189.2844,"ARG_OF_PERICENTER":260.305,"MEAN_ANOMALY":99.7653,"EPHEMERIS_TYPE":0,"CLASSIFICATION_TYPE":"U","NORAD_CAT_ID":64123,"ELEMENT_SET_NO":999,"REV_AT_EPOCH":1284,"BSTAR":0.0015829631,"MEAN_MOTION_DOT":0.00208241,"MEAN_MOTION_DDOT":0},{"OBJECT_NAME":"STARLINK-11724 [DTC]","OBJECT_ID":"2025-111B","EPOCH":"2025-08-06T22:12:47.873376","MEAN_MOTION":15.70844506,"ECCENTRICITY":0.00016246,"INCLINATION":42.9997,"RA_OF_ASC_NODE":188.2615,"ARG_OF_PERICENTER":273.5491,"MEAN_ANOMALY":86.5191,"EPHEMERIS_TYPE":0,"CLASSIFICATION_TYPE":"U","NORAD_CAT_ID":64124,"ELEMENT_SET_NO":999,"REV_AT_EPOCH":1286,"BSTAR":0.0012662637,"MEAN_MOTION_DOT":0.00165333,"MEAN_MOTION_DDOT":0},{"OBJECT_NAME":"STARLINK-11725 [DTC]","OBJECT_ID":"2025-111C","EPOCH":"2025-08-06T14:57:56.774592","MEAN_MOTION":15.70888172,"ECCENTRICITY":6.76e-5,"INCLINATION":42.9989,"RA_OF_ASC_NODE":190.3032,"ARG_OF_PERICENTER":11.7725,"MEAN_ANOMALY":348.3159,"EPHEMERIS_TYPE":0,"CLASSIFICATION_TYPE":"U","NORAD_CAT_ID":64125,"ELEMENT_SET_NO":999,"REV_AT_EPOCH":1281,"BSTAR":0.0016193283,"MEAN_MOTION_DOT":0.00213182,"MEAN_MOTION_DDOT":0}]
